[{"OBJECT_NAME":"STARLINK-30479","OBJECT_ID":"2023-146H","EPOCH":"2026-03-09T22:00:01.999584","MEAN_MOTION":15.07912321,"ECCENTRICITY":0.00014858,"INCLINATION":42.9993,"RA_OF_ASC_NODE":312.0545,"ARG_OF_PERICENTER":264.1602,"MEAN_ANOMALY":3.5227,"EPHEMERIS_TYPE":0,"CLASSIFICATION_TYPE":"U","NORAD_CAT_ID":57898,"ELEMENT_SET_NO":999,"REV_AT_EPOCH":578,"BSTAR":0.10226617,"MEAN_MOTION_DOT":0.0175398,"MEAN_MOTION_DDOT":0},{"OBJECT_NAME":"SEMI-1N","OBJECT_ID":"2025-248E","EPOCH":"2026-03-09T00:40:10.078752","MEAN_MOTION":15.21438314,"ECCENTRICITY":0.00099016,"INCLINATION":45.4059,"RA_OF_ASC_NODE":296.6023,"ARG_OF_PERICENTER":200.0771,"MEAN_ANOMALY":159.9728,"EPHEMERIS_TYPE":0,"CLASSIFICATION_TYPE":"U","NORAD_CAT_ID":66297,"ELEMENT_SET_NO":999,"REV_AT_EPOCH":1929,"BSTAR":0.00035121654,"MEAN_MOTION_DOT":7.76e-5,"MEAN_MOTION_DDOT":0}]
